[{"OBJECT_NAME":"ONEWEB-0429","OBJECT_ID":"2021-132AH","EPOCH":"2026-03-09T17:06:28.930176","MEAN_MOTION":13.18686546,"ECCENTRICITY":0.00018486,"INCLINATION":87.9248,"RA_OF_ASC_NODE":355.2198,"ARG_OF_PERICENTER":82.9914,"MEAN_ANOMALY":277.1428,"EPHEMERIS_TYPE":0,"CLASSIFICATION_TYPE":"U","NORAD_CAT_ID":50500,"ELEMENT_SET_NO":999,"REV_AT_EPOCH":20847,"BSTAR":-6.1219241e-5,"MEAN_MOTION_DOT":-1.1e-7,"MEAN_MOTION_DDOT":0},{"OBJECT_NAME":"THORAD AGENA D DEB","OBJECT_ID":"1970-025DS","EPOCH":"2026-03-09T10:26:26.274048","MEAN_MOTION":13.26883764,"ECCENTRICITY":0.01838948,"INCLINATION":99.7479,"RA_OF_ASC_NODE":230.1145,"ARG_OF_PERICENTER":166.8853,"MEAN_ANOMALY":252.4923,"EPHEMERIS_TYPE":0,"CLASSIFICATION_TYPE":"U","NORAD_CAT_ID":4772,"ELEMENT_SET_NO":999,"REV_AT_EPOCH":68894,"BSTAR":0.0015860797,"MEAN_MOTION_DOT":7.34e-6,"MEAN_MOTION_DDOT":0}]
